ORBCOMM FM115 [+]       
1 41186U 15081H   24113.44091409  .00003246  00000+0  69614-3 0  9990
2 41186  46.9973 237.7393 0001554 274.8741  85.1968 14.60596184446221
ORBCOMM FM108 [+]       
1 41187U 15081J   24113.50547097  .00003098  00000+0  72693-3 0  9993
2 41187  47.0036 291.1702 0002903 190.4037 169.6788 14.56500303445435
ORBCOMM FM117 [+]       
1 41188U 15081K   24114.15721390  .00002819  00000+0  66463-3 0  9994
2 41188  46.9993 287.0003 0003493 201.8057 158.2680 14.56508753445621
ORBCOMM FM116 [+]       
1 41189U 15081L   24113.73493555  .00003608  00000+0  84029-3 0  9992
2 41189  47.0024  18.8066 0002620 287.8662  72.1937 14.56500682444323
